DELTA 2 R/B(1)          
1 20453U 90008B   25352.11252001  .00035622  00000+0  56179-3 0  9998
2 20453  35.6076 345.8269 0111284 227.4350 131.6947 15.45642910913461
COSMOS 2058             
1 20465U 90010A   25352.25628945  .00004643  00000+0  27989-3 0  9999
2 20465  82.4686 127.6040 0008734 250.4190 109.6097 15.10524887929942
SL-14 R/B               
1 20466U 90010B   25352.27643489  .00000397  00000+0  45345-4 0  9991
2 20466  82.5019 343.8467 0019110 203.9918 156.0409 14.83476432916412
SL-14 R/B               
1 20511U 90018B   25352.28347538  .00000441  00000+0  52530-4 0  9991
2 20511  82.5214 299.1830 0016537   5.6409 354.4989 14.82052516910524
HST                     
1 20580U 90037B   25352.01685464  .00005688  00000+0  19368-3 0  9991
2 20580  28.4674 236.5696 0001951 306.2447  53.7967 15.28122533760807
SL-16 R/B               
1 20625U 90046B   25351.76506849 -.00000265  00000+0 -11212-3 0  9999
2 20625  70.9992 109.9681 0011931  64.2152 296.0200 14.14999985836805
COSMOS 2084             
1 20663U 90055A   25352.14912891  .00002263  00000+0  17118-3 0  9991
2 20663  62.7902 253.5611 0030842 175.3802 184.7589 15.05051359924046
SL-6 R/B(2)             
1 20666U 90055D   25352.22259912  .00001652  00000+0  13629-3 0  9995
2 20666  62.7810 170.7853 0013281 312.6139  47.3839 15.03098462925948
SL-8 R/B                
1 20775U 90078B   25352.18507637  .00017095  00000+0  52867-3 0  9991
2 20775  82.9043 324.4349 0371051 287.5801  68.5209 14.86154903797189
SL-8 R/B                
1 21088U 91006B   25352.21115920  .00000097  00000+0  82556-4 0  9998
2 21088  82.9421 230.6432 0021179 263.5565 219.9467 13.77490914752859
OKEAN-3                 
1 21397U 91039A   25352.27028187  .00002909  00000+0  20742-3 0  9993
2 21397  82.5181  55.6951 0013358 245.2532 114.7305 15.04157588852799
COSMOS 2151             
1 21422U 91042A   25352.22784896  .00001758  00000+0  14018-3 0  9997
2 21422  82.4962 162.2144 0012119 340.9210  19.1558 14.99706899850988
