CCSDS_OMM_VERS = 2.0
CREATION_DATE  = 
ORIGINATOR     = 

OBJECT_NAME    = DELTA 2 R/B(1)
OBJECT_ID      = 1990-008B
CENTER_NAME    = EARTH
REF_FRAME      = TEME
TIME_SYSTEM    = UTC
MEAN_ELEMENT_THEORY = SGP/SGP4

EPOCH          = 2025-12-18T02:42:01.728864
MEAN_MOTION    = 15.45642910
ECCENTRICITY   = .01112841
INCLINATION    = 35.6076
RA_OF_ASC_NODE = 345.8269
ARG_OF_PERICENTER = 227.4350
MEAN_ANOMALY   = 131.6947

EPHEMERIS_TYPE = 0
CLASSIFICATION_TYPE = U
NORAD_CAT_ID   = 20453
ELEMENT_SET_NO = 999
REV_AT_EPOCH   = 91346
BSTAR          = .56179267E-3
MEAN_MOTION_DOT = .35622E-3
MEAN_MOTION_DDOT = 0

CCSDS_OMM_VERS = 2.0
CREATION_DATE  = 
ORIGINATOR     = 

OBJECT_NAME    = COSMOS 2058
OBJECT_ID      = 1990-010A
CENTER_NAME    = EARTH
REF_FRAME      = TEME
TIME_SYSTEM    = UTC
MEAN_ELEMENT_THEORY = SGP/SGP4

EPOCH          = 2025-12-18T06:09:03.408480
MEAN_MOTION    = 15.10524887
ECCENTRICITY   = .00087349
INCLINATION    = 82.4686
RA_OF_ASC_NODE = 127.6040
ARG_OF_PERICENTER = 250.4190
MEAN_ANOMALY   = 109.6097

EPHEMERIS_TYPE = 0
CLASSIFICATION_TYPE = U
NORAD_CAT_ID   = 20465
ELEMENT_SET_NO = 999
REV_AT_EPOCH   = 92994
BSTAR          = .27988629E-3
MEAN_MOTION_DOT = .4643E-4
MEAN_MOTION_DDOT = 0

CCSDS_OMM_VERS = 2.0
CREATION_DATE  = 
ORIGINATOR     = 

OBJECT_NAME    = SL-14 R/B
OBJECT_ID      = 1990-010B
CENTER_NAME    = EARTH
REF_FRAME      = TEME
TIME_SYSTEM    = UTC
MEAN_ELEMENT_THEORY = SGP/SGP4

EPOCH          = 2025-12-18T06:38:03.974496
MEAN_MOTION    = 14.83476432
ECCENTRICITY   = .001911
INCLINATION    = 82.5019
RA_OF_ASC_NODE = 343.8467
ARG_OF_PERICENTER = 203.9918
MEAN_ANOMALY   = 156.0409

EPHEMERIS_TYPE = 0
CLASSIFICATION_TYPE = U
NORAD_CAT_ID   = 20466
ELEMENT_SET_NO = 999
REV_AT_EPOCH   = 91641
BSTAR          = .4534507E-4
MEAN_MOTION_DOT = .397E-5
MEAN_MOTION_DDOT = 0

CCSDS_OMM_VERS = 2.0
CREATION_DATE  = 
ORIGINATOR     = 

OBJECT_NAME    = SL-14 R/B
OBJECT_ID      = 1990-018B
CENTER_NAME    = EARTH
REF_FRAME      = TEME
TIME_SYSTEM    = UTC
MEAN_ELEMENT_THEORY = SGP/SGP4

EPOCH          = 2025-12-18T06:48:12.272832
MEAN_MOTION    = 14.82052516
ECCENTRICITY   = .00165373
INCLINATION    = 82.5214
RA_OF_ASC_NODE = 299.1830
ARG_OF_PERICENTER = 5.6409
MEAN_ANOMALY   = 354.4989

EPHEMERIS_TYPE = 0
CLASSIFICATION_TYPE = U
NORAD_CAT_ID   = 20511
ELEMENT_SET_NO = 999
REV_AT_EPOCH   = 91052
BSTAR          = .52529909E-4
MEAN_MOTION_DOT = .441E-5
MEAN_MOTION_DDOT = 0

CCSDS_OMM_VERS = 2.0
CREATION_DATE  = 
ORIGINATOR     = 

OBJECT_NAME    = HST
OBJECT_ID      = 1990-037B
CENTER_NAME    = EARTH
REF_FRAME      = TEME
TIME_SYSTEM    = UTC
MEAN_ELEMENT_THEORY = SGP/SGP4

EPOCH          = 2025-12-18T00:24:16.240896
MEAN_MOTION    = 15.28122533
ECCENTRICITY   = .00019515
INCLINATION    = 28.4674
RA_OF_ASC_NODE = 236.5696
ARG_OF_PERICENTER = 306.2447
MEAN_ANOMALY   = 53.7967

EPHEMERIS_TYPE = 0
CLASSIFICATION_TYPE = U
NORAD_CAT_ID   = 20580
ELEMENT_SET_NO = 999
REV_AT_EPOCH   = 76080
BSTAR          = .19368318E-3
MEAN_MOTION_DOT = .5688E-4
MEAN_MOTION_DDOT = 0

CCSDS_OMM_VERS = 2.0
CREATION_DATE  = 
ORIGINATOR     = 

OBJECT_NAME    = SL-16 R/B
OBJECT_ID      = 1990-046B
CENTER_NAME    = EARTH
REF_FRAME      = TEME
TIME_SYSTEM    = UTC
MEAN_ELEMENT_THEORY = SGP/SGP4

EPOCH          = 2025-12-17T18:21:41.917536
MEAN_MOTION    = 14.14999985
ECCENTRICITY   = .00119317
INCLINATION    = 70.9992
RA_OF_ASC_NODE = 109.9681
ARG_OF_PERICENTER = 64.2152
MEAN_ANOMALY   = 296.0200

EPHEMERIS_TYPE = 0
CLASSIFICATION_TYPE = U
NORAD_CAT_ID   = 20625
ELEMENT_SET_NO = 999
REV_AT_EPOCH   = 83680
BSTAR          = -.11212215E-3
MEAN_MOTION_DOT = -.265E-5
MEAN_MOTION_DDOT = 0

CCSDS_OMM_VERS = 2.0
CREATION_DATE  = 
ORIGINATOR     = 

OBJECT_NAME    = COSMOS 2084
OBJECT_ID      = 1990-055A
CENTER_NAME    = EARTH
REF_FRAME      = TEME
TIME_SYSTEM    = UTC
MEAN_ELEMENT_THEORY = SGP/SGP4

EPOCH          = 2025-12-18T03:34:44.737824
MEAN_MOTION    = 15.05051359
ECCENTRICITY   = .00308426
INCLINATION    = 62.7902
RA_OF_ASC_NODE = 253.5611
ARG_OF_PERICENTER = 175.3802
MEAN_ANOMALY   = 184.7589

EPHEMERIS_TYPE = 0
CLASSIFICATION_TYPE = U
NORAD_CAT_ID   = 20663
ELEMENT_SET_NO = 999
REV_AT_EPOCH   = 92404
BSTAR          = .17117801E-3
MEAN_MOTION_DOT = .2263E-4
MEAN_MOTION_DDOT = 0

CCSDS_OMM_VERS = 2.0
CREATION_DATE  = 
ORIGINATOR     = 

OBJECT_NAME    = SL-6 R/B(2)
OBJECT_ID      = 1990-055D
CENTER_NAME    = EARTH
REF_FRAME      = TEME
TIME_SYSTEM    = UTC
MEAN_ELEMENT_THEORY = SGP/SGP4

EPOCH          = 2025-12-18T05:20:32.563968
MEAN_MOTION    = 15.03098462
ECCENTRICITY   = .00132813
INCLINATION    = 62.7810
RA_OF_ASC_NODE = 170.7853
ARG_OF_PERICENTER = 312.6139
MEAN_ANOMALY   = 47.3839

EPHEMERIS_TYPE = 0
CLASSIFICATION_TYPE = U
NORAD_CAT_ID   = 20666
ELEMENT_SET_NO = 999
REV_AT_EPOCH   = 92594
BSTAR          = .1362857E-3
MEAN_MOTION_DOT = .1652E-4
MEAN_MOTION_DDOT = 0

CCSDS_OMM_VERS = 2.0
CREATION_DATE  = 
ORIGINATOR     = 

OBJECT_NAME    = SL-8 R/B
OBJECT_ID      = 1990-078B
CENTER_NAME    = EARTH
REF_FRAME      = TEME
TIME_SYSTEM    = UTC
MEAN_ELEMENT_THEORY = SGP/SGP4

EPOCH          = 2025-12-18T04:26:30.598368
MEAN_MOTION    = 14.86154903
ECCENTRICITY   = .03710517
INCLINATION    = 82.9043
RA_OF_ASC_NODE = 324.4349
ARG_OF_PERICENTER = 287.5801
MEAN_ANOMALY   = 68.5209

EPHEMERIS_TYPE = 0
CLASSIFICATION_TYPE = U
NORAD_CAT_ID   = 20775
ELEMENT_SET_NO = 999
REV_AT_EPOCH   = 79718
BSTAR          = .52867462E-3
MEAN_MOTION_DOT = .17095E-3
MEAN_MOTION_DDOT = 0

CCSDS_OMM_VERS = 2.0
CREATION_DATE  = 
ORIGINATOR     = 

OBJECT_NAME    = SL-8 R/B
OBJECT_ID      = 1991-006B
CENTER_NAME    = EARTH
REF_FRAME      = TEME
TIME_SYSTEM    = UTC
MEAN_ELEMENT_THEORY = SGP/SGP4

EPOCH          = 2025-12-18T05:04:04.154880
MEAN_MOTION    = 13.77490914
ECCENTRICITY   = .0021179
INCLINATION    = 82.9421
RA_OF_ASC_NODE = 230.6432
ARG_OF_PERICENTER = 263.5565
MEAN_ANOMALY   = 219.9467

EPHEMERIS_TYPE = 0
CLASSIFICATION_TYPE = U
NORAD_CAT_ID   = 21088
ELEMENT_SET_NO = 999
REV_AT_EPOCH   = 75285
BSTAR          = .82556302E-4
MEAN_MOTION_DOT = .97E-6
MEAN_MOTION_DDOT = 0

CCSDS_OMM_VERS = 2.0
CREATION_DATE  = 
ORIGINATOR     = 

OBJECT_NAME    = OKEAN-3
OBJECT_ID      = 1991-039A
CENTER_NAME    = EARTH
REF_FRAME      = TEME
TIME_SYSTEM    = UTC
MEAN_ELEMENT_THEORY = SGP/SGP4

EPOCH          = 2025-12-18T06:29:12.353568
MEAN_MOTION    = 15.04157588
ECCENTRICITY   = .00133585
INCLINATION    = 82.5181
RA_OF_ASC_NODE = 55.6951
ARG_OF_PERICENTER = 245.2532
MEAN_ANOMALY   = 114.7305

EPHEMERIS_TYPE = 0
CLASSIFICATION_TYPE = U
NORAD_CAT_ID   = 21397
ELEMENT_SET_NO = 999
REV_AT_EPOCH   = 85279
BSTAR          = .2074249E-3
MEAN_MOTION_DOT = .2909E-4
MEAN_MOTION_DDOT = 0

CCSDS_OMM_VERS = 2.0
CREATION_DATE  = 
ORIGINATOR     = 

OBJECT_NAME    = COSMOS 2151
OBJECT_ID      = 1991-042A
CENTER_NAME    = EARTH
REF_FRAME      = TEME
TIME_SYSTEM    = UTC
MEAN_ELEMENT_THEORY = SGP/SGP4

EPOCH          = 2025-12-18T05:28:06.150144
MEAN_MOTION    = 14.99706899
ECCENTRICITY   = .00121193
INCLINATION    = 82.4962
RA_OF_ASC_NODE = 162.2144
ARG_OF_PERICENTER = 340.9210
MEAN_ANOMALY   = 19.1558

EPHEMERIS_TYPE = 0
CLASSIFICATION_TYPE = U
NORAD_CAT_ID   = 21422
ELEMENT_SET_NO = 999
REV_AT_EPOCH   = 85098
BSTAR          = .14018367E-3
MEAN_MOTION_DOT = .1758E-4
MEAN_MOTION_DDOT = 0

